[{"OBJECT_NAME":"STARLINK-31514","OBJECT_ID":"2024-045K","EPOCH":"2026-03-09T10:47:03.884064","MEAN_MOTION":15.27583166,"ECCENTRICITY":0.00027451,"INCLINATION":43.008,"RA_OF_ASC_NODE":93.9914,"ARG_OF_PERICENTER":302.9517,"MEAN_ANOMALY":57.1071,"EPHEMERIS_TYPE":0,"CLASSIFICATION_TYPE":"U","NORAD_CAT_ID":59187,"ELEMENT_SET_NO":999,"REV_AT_EPOCH":11312,"BSTAR":-4.906797e-5,"MEAN_MOTION_DOT":-1.613e-5,"MEAN_MOTION_DDOT":0},{"OBJECT_NAME":"CZ-6A DEB","OBJECT_ID":"2022-151DE","EPOCH":"2026-03-09T09:45:43.657920","MEAN_MOTION":15.34292219,"ECCENTRICITY":0.00393756,"INCLINATION":99.0022,"RA_OF_ASC_NODE":218.5596,"ARG_OF_PERICENTER":192.6197,"MEAN_ANOMALY":167.4059,"EPHEMERIS_TYPE":0,"CLASSIFICATION_TYPE":"U","NORAD_CAT_ID":54359,"ELEMENT_SET_NO":999,"REV_AT_EPOCH":10560,"BSTAR":0.0065240017,"MEAN_MOTION_DOT":0.00228186,"MEAN_MOTION_DDOT":0}]
